{
    "links": {
        "self": "http://www.neowsapp.com/rest/v1/neo/3588846?api_key=iIulBulltgU6a56xZRHN4H3l9WmuAYTsLGpBGhQ2"
    },
    "id": "3588846",
    "neo_reference_id": "3588846",
    "name": "(2011 WE32)",
    "designation": "2011 WE32",
    "nasa_jpl_url": "http://ssd.jpl.nasa.gov/sbdb.cgi?sstr=3588846",
    "absolute_magnitude_h": 20.6,
    "estimated_diameter": {
        "kilometers": {
            "estimated_diameter_min": 0.2016299194,
            "estimated_diameter_max": 0.4508582062
        },
        "meters": {
            "estimated_diameter_min": 201.6299194428,
            "estimated_diameter_max": 450.8582061718
        },
        "miles": {
            "estimated_diameter_min": 0.1252869847,
            "estimated_diameter_max": 0.2801502144
        },
        "feet": {
            "estimated_diameter_min": 661.5155049046,
            "estimated_diameter_max": 1479.1936371367
        }
    },
    "is_potentially_hazardous_asteroid": false,
    "close_approach_data": [
        {
            "close_approach_date": "1989-11-09",
            "close_approach_date_full": "1989-Nov-09 03:19",
            "epoch_date_close_approach": 626584740000,
            "relative_velocity": {
                "kilometers_per_second": "11.8134600081",
                "kilometers_per_hour": "42528.456029012",
                "miles_per_hour": "26425.528692027"
            },
            "miss_distance": {
                "astronomical": "0.4419440687",
                "lunar": "171.9162427243",
                "kilometers": "66113891.336653669",
                "miles": "41081267.1129278722"
            },
            "orbiting_body": "Earth"
        },
        {
            "close_approach_date": "2000-11-08",
            "close_approach_date_full": "2000-Nov-08 01:14",
            "epoch_date_close_approach": 973646040000,
            "relative_velocity": {
                "kilometers_per_second": "11.7969364571",
                "kilometers_per_hour": "42468.9712453966",
                "miles_per_hour": "26388.5671607854"
            },
            "miss_distance": {
                "astronomical": "0.4094979993",
                "lunar": "159.2947217277",
                "kilometers": "61260028.464541491",
                "miles": "38065216.5803189358"
            },
            "orbiting_body": "Earth"
        },
        {
            "close_approach_date": "2011-11-07",
            "close_approach_date_full": "2011-Nov-07 05:15",
            "epoch_date_close_approach": 1320642900000,
            "relative_velocity": {
                "kilometers_per_second": "11.9184720706",
                "kilometers_per_hour": "42906.4994540016",
                "miles_per_hour": "26660.4301746267"
            },
            "miss_distance": {
                "astronomical": "0.3288461716",
                "lunar": "127.9211607524",
                "kilometers": "49194686.829014492",
                "miles": "30568160.9310923096"
            },
            "orbiting_body": "Earth"
        },
        {
            "close_approach_date": "2022-11-06",
            "close_approach_date_full": "2022-Nov-06 09:34",
            "epoch_date_close_approach": 1667727240000,
            "relative_velocity": {
                "kilometers_per_second": "12.5146645095",
                "kilometers_per_hour": "45052.7922340582",
                "miles_per_hour": "27994.0530412124"
            },
            "miss_distance": {
                "astronomical": "0.2798202807",
                "lunar": "108.8500891923",
                "kilometers": "41860517.975522109",
                "miles": "26010919.7276147442"
            },
            "orbiting_body": "Earth"
        },
        {
            "close_approach_date": "2033-11-06",
            "close_approach_date_full": "2033-Nov-06 06:18",
            "epoch_date_close_approach": 2014870680000,
            "relative_velocity": {
                "kilometers_per_second": "12.8297830071",
                "kilometers_per_hour": "46187.2188255917",
                "miles_per_hour": "28698.9416086017"
            },
            "miss_distance": {
                "astronomical": "0.2755072932",
                "lunar": "107.1723370548",
                "kilometers": "41215304.232185484",
                "miles": "25610002.4982843192"
            },
            "orbiting_body": "Earth"
        }
    ],
    "orbital_data": {
        "orbit_id": "14",
        "orbit_determination_date": "2017-04-06 08:51:55",
        "first_observation_date": "2011-11-23",
        "last_observation_date": "2011-12-31",
        "data_arc_in_days": 38,
        "observations_used": 107,
        "orbit_uncertainty": "6",
        "minimum_orbit_intersection": ".280375",
        "jupiter_tisserand_invariant": "3.280",
        "epoch_osculation": "2459000.5",
        "eccentricity": ".484370605601806",
        "semi_major_axis": "2.379458922127075",
        "inclination": "22.45108147491876",
        "ascending_node_longitude": "236.4612808131367",
        "orbital_period": "1340.651024751275",
        "perihelion_distance": "1.226918963011763",
        "perihelion_argument": "146.0026951837544",
        "aphelion_distance": "3.531998881242386",
        "perihelion_time": "2458524.729508381154",
        "mean_anomaly": "127.7568687306683",
        "mean_motion": ".2685262557918749",
        "equinox": "J2000",
        "orbit_class": {
            "orbit_class_type": "AMO",
            "orbit_class_description": "Near-Earth asteroid orbits similar to that of 1221 Amor",
            "orbit_class_range": "1.017 AU < q (perihelion) < 1.3 AU"
        }
    },
    "is_sentry_object": false
}